[
    {
        "CCSDS_OMM_VERS": "3.0",
        "COMMENT": "GENERATED VIA SPACE-TRACK.ORG API",
        "CREATION_DATE": "2025-02-13T06:26:17",
        "ORIGINATOR": "18 SPCS",
        "OBJECT_NAME": "GALILEO-FM4",
        "OBJECT_ID": "2012-055B",
        "CENTER_NAME": "EARTH",
        "REF_FRAME": "TEME",
        "TIME_SYSTEM": "UTC",
        "MEAN_ELEMENT_THEORY": "SGP4",
        "EPOCH": "2025-02-11T13:07:31.681344",
        "MEAN_MOTION": "1.64591971",
        "ECCENTRICITY": "0.00007610",
        "INCLINATION": "55.5308",
        "RA_OF_ASC_NODE": "115.6831",
        "ARG_OF_PERICENTER": "269.5264",
        "MEAN_ANOMALY": "90.5214",
        "EPHEMERIS_TYPE": "0",
        "CLASSIFICATION_TYPE": "U",
        "NORAD_CAT_ID": "38858",
        "ELEMENT_SET_NO": "999",
        "REV_AT_EPOCH": "7657",
        "BSTAR": "0.00000000000000",
        "MEAN_MOTION_DOT": "-0.00000019",
        "MEAN_MOTION_DDOT": "0.0000000000000",
        "SEMIMAJOR_AXIS": "30301.403",
        "PERIOD": "874.891",
        "APOAPSIS": "23925.574",
        "PERIAPSIS": "23920.963",
        "OBJECT_TYPE": "PAYLOAD",
        "RCS_SIZE": "LARGE",
        "COUNTRY_CODE": "ESA",
        "LAUNCH_DATE": "2012-10-12",
        "SITE": "FRGUI",
        "DECAY_DATE": null,
        "FILE": "4639134",
        "GP_ID": "280605464",
        "TLE_LINE0": "0 GALILEO-FM4",
        "TLE_LINE1": "1 38858U 12055B   25042.54689446 -.00000019  00000-0  00000+0 0  9994",
        "TLE_LINE2": "2 38858  55.5308 115.6831 0000761 269.5264  90.5214  1.64591971 76572"
    }
]